{
"type": "FeatureCollection",
"name": "cloud_regions",
"crs": { "type": "name", "properties": { "name": "urn:ogc:def:crs:OGC:1.3:CRS84" } },
"features": [
{ "type": "Feature", "properties": { "region": "af-south-1", "location_name": "Africa (Cape Town)", "lat": -33.928992, "lon": 18.417396, "osm_id": 32675806.0, "country_tld": "za", "provider": "aws" }, "geometry": { "type": "Point", "coordinates": [ 18.417396, -33.928992 ] } },
{ "type": "Feature", "properties": { "region": "ap-east-1", "location_name": "Asia Pacific (Hong Kong)", "lat": 22.2793278, "lon": 114.1628131, "osm_id": 10264792.0, "country_tld": "hk", "provider": "aws" }, "geometry": { "type": "Point", "coordinates": [ 114.1628131, 22.2793278 ] } },
{ "type": "Feature", "properties": { "region": "ap-northeast-1", "location_name": "Asia Pacific (Tokyo)", "lat": 35.6828387, "lon": 139.7594549, "osm_id": 1543125.0, "country_tld": "jp", "provider": "aws" }, "geometry": { "type": "Point", "coordinates": [ 139.7594549, 35.6828387 ] } },
{ "type": "Feature", "properties": { "region": "ap-northeast-2", "location_name": "Asia Pacific (Seoul)", "lat": 37.5666791, "lon": 126.9782914, "osm_id": 2297418.0, "country_tld": "kr", "provider": "aws" }, "geometry": { "type": "Point", "coordinates": [ 126.9782914, 37.5666791 ] } },
{ "type": "Feature", "properties": { "region": "ap-northeast-3", "location_name": "Asia Pacific (Osaka)", "lat": 34.6198813, "lon": 135.490357, "osm_id": 341906.0, "country_tld": "jp", "provider": "aws" }, "geometry": { "type": "Point", "coordinates": [ 135.490357, 34.6198813 ] } },
{ "type": "Feature", "properties": { "region": "ap-south-1", "location_name": "Asia Pacific (Mumbai)", "lat": 19.0759899, "lon": 72.8773928, "osm_id": 7888990.0, "country_tld": "in", "provider": "aws" }, "geometry": { "type": "Point", "coordinates": [ 72.8773928, 19.0759899 ] } },
{ "type": "Feature", "properties": { "region": "ap-south-2", "location_name": "Asia Pacific (Hyderabad)", "lat": 17.360589, "lon": 78.4740613, "osm_id": 245640543.0, "country_tld": "in", "provider": "aws" }, "geometry": { "type": "Point", "coordinates": [ 78.4740613, 17.360589 ] } },
{ "type": "Feature", "properties": { "region": "ap-southeast-1", "location_name": "Asia Pacific (Singapore)", "lat": 1.357107, "lon": 103.8194992, "osm_id": 536780.0, "country_tld": "sg", "provider": "aws" }, "geometry": { "type": "Point", "coordinates": [ 103.8194992, 1.357107 ] } },
{ "type": "Feature", "properties": { "region": "ap-southeast-2", "location_name": "Asia Pacific (Sydney)", "lat": -33.8698439, "lon": 151.2082848, "osm_id": 13766899.0, "country_tld": "au", "provider": "aws" }, "geometry": { "type": "Point", "coordinates": [ 151.2082848, -33.8698439 ] } },
{ "type": "Feature", "properties": { "region": "ap-southeast-3", "location_name": "Asia Pacific (Jakarta)", "lat": -6.1753942, "lon": 106.827183, "osm_id": 6362934.0, "country_tld": "id", "provider": "aws" }, "geometry": { "type": "Point", "coordinates": [ 106.827183, -6.1753942 ] } },
{ "type": "Feature", "properties": { "region": "ap-southeast-4", "location_name": "Asia Pacific (Melbourne)", "lat": -37.8142176, "lon": 144.9631608, "osm_id": 4246124.0, "country_tld": "au", "provider": "aws" }, "geometry": { "type": "Point", "coordinates": [ 144.9631608, -37.8142176 ] } },
{ "type": "Feature", "properties": { "region": "ca-central-1", "location_name": "Canada (Central)", "lat": 45.5031824, "lon": -73.5698065, "osm_id": 1634158.0, "country_tld": "ca", "provider": "aws" }, "geometry": { "type": "Point", "coordinates": [ -73.5698065, 45.5031824 ] } },
{ "type": "Feature", "properties": { "region": "cn-north-1", "location_name": "China (Beijing)", "lat": 39.906217, "lon": 116.3912757, "osm_id": 25248662.0, "country_tld": "cn", "provider": "aws" }, "geometry": { "type": "Point", "coordinates": [ 116.3912757, 39.906217 ] } },
{ "type": "Feature", "properties": { "region": "cn-northwest-1", "location_name": "China (Ningxia)", "lat": 37.3095528, "lon": 105.96085530747736, "osm_id": 913101.0, "country_tld": "cn", "provider": "aws" }, "geometry": { "type": "Point", "coordinates": [ 105.96085530747736, 37.3095528 ] } },
{ "type": "Feature", "properties": { "region": "eu-central-1", "location_name": "EU (Frankfurt)", "lat": 50.1106444, "lon": 8.6820917, "osm_id": 62400.0, "country_tld": "de", "provider": "aws" }, "geometry": { "type": "Point", "coordinates": [ 8.6820917, 50.1106444 ] } },
{ "type": "Feature", "properties": { "region": "eu-central-2", "location_name": "EU (Zurich)", "lat": 47.3744489, "lon": 8.5410422, "osm_id": 1682248.0, "country_tld": "ch", "provider": "aws" }, "geometry": { "type": "Point", "coordinates": [ 8.5410422, 47.3744489 ] } },
{ "type": "Feature", "properties": { "region": "eu-north-1", "location_name": "EU (Stockholm)", "lat": 59.3251172, "lon": 18.0710935, "osm_id": 398021.0, "country_tld": "se", "provider": "aws" }, "geometry": { "type": "Point", "coordinates": [ 18.0710935, 59.3251172 ] } },
{ "type": "Feature", "properties": { "region": "eu-south-1", "location_name": "EU (Milan)", "lat": 45.4641943, "lon": 9.1896346, "osm_id": 44915.0, "country_tld": "it", "provider": "aws" }, "geometry": { "type": "Point", "coordinates": [ 9.1896346, 45.4641943 ] } },
{ "type": "Feature", "properties": { "region": "eu-west-1", "location_name": "EU (Ireland)", "lat": 53.3497645, "lon": -6.2602732, "osm_id": 1109531.0, "country_tld": "ie", "provider": "aws" }, "geometry": { "type": "Point", "coordinates": [ -6.2602732, 53.3497645 ] } },
{ "type": "Feature", "properties": { "region": "eu-west-2", "location_name": "EU (London)", "lat": 51.5073219, "lon": -0.1276474, "osm_id": 65606.0, "country_tld": "uk", "provider": "aws" }, "geometry": { "type": "Point", "coordinates": [ -0.1276474, 51.5073219 ] } },
{ "type": "Feature", "properties": { "region": "eu-west-3", "location_name": "EU (Paris)", "lat": 48.8588897, "lon": 2.3200410217200766, "osm_id": 7444.0, "country_tld": "fr", "provider": "aws" }, "geometry": { "type": "Point", "coordinates": [ 2.320041021720077, 48.8588897 ] } },
{ "type": "Feature", "properties": { "region": "il-central-1", "location_name": "Middle East (Israel) - ???", "lat": 31.5313113, "lon": 34.8667654, "osm_id": 1473946.0, "country_tld": "il", "provider": "aws" }, "geometry": { "type": "Point", "coordinates": [ 34.8667654, 31.5313113 ] } },
{ "type": "Feature", "properties": { "region": "me-central-1", "location_name": "Middle East (United Arab Emirates) - ???", "lat": 24.0002488, "lon": 53.9994829, "osm_id": 307763.0, "country_tld": "ae", "provider": "aws" }, "geometry": { "type": "Point", "coordinates": [ 53.9994829, 24.0002488 ] } },
{ "type": "Feature", "properties": { "region": "me-south-1", "location_name": "Middle East (Bahrain)", "lat": 26.1551249, "lon": 50.5344606, "osm_id": 378734.0, "country_tld": "bh", "provider": "aws" }, "geometry": { "type": "Point", "coordinates": [ 50.5344606, 26.1551249 ] } },
{ "type": "Feature", "properties": { "region": "sa-east-1", "location_name": "South America (São Paulo)", "lat": -23.5506507, "lon": -46.6333824, "osm_id": 30674098.0, "country_tld": "br", "provider": "aws" }, "geometry": { "type": "Point", "coordinates": [ -46.6333824, -23.5506507 ] } },
{ "type": "Feature", "properties": { "region": "us-east-1", "location_name": "US East (N. Virginia)", "lat": 37.1232245, "lon": -78.4927721, "osm_id": 224042.0, "country_tld": "us", "provider": "aws" }, "geometry": { "type": "Point", "coordinates": [ -78.4927721, 37.1232245 ] } },
{ "type": "Feature", "properties": { "region": "us-east-2", "location_name": "US East (Ohio)", "lat": 40.2253569, "lon": -82.6881395, "osm_id": 162061.0, "country_tld": "us", "provider": "aws" }, "geometry": { "type": "Point", "coordinates": [ -82.6881395, 40.2253569 ] } },
{ "type": "Feature", "properties": { "region": "us-west-1", "location_name": "US West (N. California)", "lat": 37.7790262, "lon": -122.419906, "osm_id": 111968.0, "country_tld": "us", "provider": "aws" }, "geometry": { "type": "Point", "coordinates": [ -122.419906, 37.7790262 ] } },
{ "type": "Feature", "properties": { "region": "us-west-2", "location_name": "US West (Oregon)", "lat": 43.9792797, "lon": -120.737257, "osm_id": 165476.0, "country_tld": "us", "provider": "aws" }, "geometry": { "type": "Point", "coordinates": [ -120.737257, 43.9792797 ] } },
{ "type": "Feature", "properties": { "region": "eastus", "location_name": "Virginia, East US, US", "lat": 37.3719, "lon": -79.8164, "osm_id": null, "country_tld": "us", "provider": "azure" }, "geometry": { "type": "Point", "coordinates": [ -79.8164, 37.3719 ] } },
{ "type": "Feature", "properties": { "region": "eastus2", "location_name": "Virginia, East US 2, US", "lat": 36.6681, "lon": -78.3889, "osm_id": null, "country_tld": "us", "provider": "azure" }, "geometry": { "type": "Point", "coordinates": [ -78.3889, 36.6681 ] } },
{ "type": "Feature", "properties": { "region": "southcentralus", "location_name": "Texas, South Central US, US", "lat": 29.4167, "lon": -98.5, "osm_id": null, "country_tld": "us", "provider": "azure" }, "geometry": { "type": "Point", "coordinates": [ -98.5, 29.4167 ] } },
{ "type": "Feature", "properties": { "region": "westus2", "location_name": "Washington, West US 2, US", "lat": 47.233, "lon": -119.852, "osm_id": null, "country_tld": "us", "provider": "azure" }, "geometry": { "type": "Point", "coordinates": [ -119.852, 47.233 ] } },
{ "type": "Feature", "properties": { "region": "westus3", "location_name": "Phoenix, West US 3, US", "lat": 33.448376, "lon": -112.074036, "osm_id": null, "country_tld": "us", "provider": "azure" }, "geometry": { "type": "Point", "coordinates": [ -112.074036, 33.448376 ] } },
{ "type": "Feature", "properties": { "region": "australiaeast", "location_name": "New South Wales, Australia East, Asia Pacific", "lat": -33.86, "lon": 151.2094, "osm_id": null, "country_tld": "au", "provider": "azure" }, "geometry": { "type": "Point", "coordinates": [ 151.2094, -33.86 ] } },
{ "type": "Feature", "properties": { "region": "southeastasia", "location_name": "Singapore, Southeast Asia, Asia Pacific", "lat": 1.283, "lon": 103.833, "osm_id": null, "country_tld": "sg", "provider": "azure" }, "geometry": { "type": "Point", "coordinates": [ 103.833, 1.283 ] } },
{ "type": "Feature", "properties": { "region": "northeurope", "location_name": "Ireland, North Europe, Europe", "lat": 53.3478, "lon": -6.2597, "osm_id": null, "country_tld": "ie", "provider": "azure" }, "geometry": { "type": "Point", "coordinates": [ -6.2597, 53.3478 ] } },
{ "type": "Feature", "properties": { "region": "swedencentral", "location_name": "Gävle, Sweden Central, Europe", "lat": 60.67488, "lon": 17.14127, "osm_id": null, "country_tld": "se", "provider": "azure" }, "geometry": { "type": "Point", "coordinates": [ 17.14127, 60.67488 ] } },
{ "type": "Feature", "properties": { "region": "uksouth", "location_name": "London, UK South, Europe", "lat": 50.941, "lon": -0.799, "osm_id": null, "country_tld": "uk", "provider": "azure" }, "geometry": { "type": "Point", "coordinates": [ -0.799, 50.941 ] } },
{ "type": "Feature", "properties": { "region": "westeurope", "location_name": "Netherlands, West Europe, Europe", "lat": 52.3667, "lon": 4.9, "osm_id": null, "country_tld": "nl", "provider": "azure" }, "geometry": { "type": "Point", "coordinates": [ 4.9, 52.3667 ] } },
{ "type": "Feature", "properties": { "region": "centralus", "location_name": "Iowa, Central US, US", "lat": 41.5908, "lon": -93.6208, "osm_id": null, "country_tld": "us", "provider": "azure" }, "geometry": { "type": "Point", "coordinates": [ -93.6208, 41.5908 ] } },
{ "type": "Feature", "properties": { "region": "southafricanorth", "location_name": "Johannesburg, South Africa North, Africa", "lat": -25.73134, "lon": 28.21837, "osm_id": null, "country_tld": "za", "provider": "azure" }, "geometry": { "type": "Point", "coordinates": [ 28.21837, -25.73134 ] } },
{ "type": "Feature", "properties": { "region": "centralindia", "location_name": "Pune, Central India, Asia Pacific", "lat": 18.5822, "lon": 73.9197, "osm_id": null, "country_tld": "in", "provider": "azure" }, "geometry": { "type": "Point", "coordinates": [ 73.9197, 18.5822 ] } },
{ "type": "Feature", "properties": { "region": "eastasia", "location_name": "Hong Kong, East Asia, Asia Pacific", "lat": 22.267, "lon": 114.188, "osm_id": null, "country_tld": "hk", "provider": "azure" }, "geometry": { "type": "Point", "coordinates": [ 114.188, 22.267 ] } },
{ "type": "Feature", "properties": { "region": "japaneast", "location_name": "Tokyo, Saitama, Japan East, Asia Pacific", "lat": 35.68, "lon": 139.77, "osm_id": null, "country_tld": "jp", "provider": "azure" }, "geometry": { "type": "Point", "coordinates": [ 139.77, 35.68 ] } },
{ "type": "Feature", "properties": { "region": "koreacentral", "location_name": "Seoul, Korea Central, Asia Pacific", "lat": 37.5665, "lon": 126.978, "osm_id": null, "country_tld": "kr", "provider": "azure" }, "geometry": { "type": "Point", "coordinates": [ 126.978, 37.5665 ] } },
{ "type": "Feature", "properties": { "region": "canadacentral", "location_name": "Toronto, Canada Central, Canada", "lat": 43.653, "lon": -79.383, "osm_id": null, "country_tld": "ca", "provider": "azure" }, "geometry": { "type": "Point", "coordinates": [ -79.383, 43.653 ] } },
{ "type": "Feature", "properties": { "region": "francecentral", "location_name": "Paris, France Central, Europe", "lat": 46.3772, "lon": 2.373, "osm_id": null, "country_tld": "fr", "provider": "azure" }, "geometry": { "type": "Point", "coordinates": [ 2.373, 46.3772 ] } },
{ "type": "Feature", "properties": { "region": "germanywestcentral", "location_name": "Frankfurt, Germany West Central, Europe", "lat": 50.110924, "lon": 8.682127, "osm_id": null, "country_tld": "de", "provider": "azure" }, "geometry": { "type": "Point", "coordinates": [ 8.682127, 50.110924 ] } },
{ "type": "Feature", "properties": { "region": "norwayeast", "location_name": "Norway, Norway East, Europe", "lat": 59.913868, "lon": 10.752245, "osm_id": null, "country_tld": "no", "provider": "azure" }, "geometry": { "type": "Point", "coordinates": [ 10.752245, 59.913868 ] } },
{ "type": "Feature", "properties": { "region": "brazilsouth", "location_name": "Sao Paulo State, Brazil South, South America", "lat": -23.55, "lon": -46.633, "osm_id": null, "country_tld": "br", "provider": "azure" }, "geometry": { "type": "Point", "coordinates": [ -46.633, -23.55 ] } },
{ "type": "Feature", "properties": { "region": "eastus2euap", "location_name": ", East US 2 EUAP, US", "lat": 36.6681, "lon": -78.3889, "osm_id": null, "country_tld": "us", "provider": "azure" }, "geometry": { "type": "Point", "coordinates": [ -78.3889, 36.6681 ] } },
{ "type": "Feature", "properties": { "region": "northcentralus", "location_name": "Illinois, North Central US, US", "lat": 41.8819, "lon": -87.6278, "osm_id": null, "country_tld": "us", "provider": "azure" }, "geometry": { "type": "Point", "coordinates": [ -87.6278, 41.8819 ] } },
{ "type": "Feature", "properties": { "region": "westus", "location_name": "California, West US, US", "lat": 37.783, "lon": -122.417, "osm_id": null, "country_tld": "us", "provider": "azure" }, "geometry": { "type": "Point", "coordinates": [ -122.417, 37.783 ] } },
{ "type": "Feature", "properties": { "region": "jioindiawest", "location_name": "Jamnagar, Jio India West, Asia Pacific", "lat": 22.470701, "lon": 70.05773, "osm_id": null, "country_tld": "in", "provider": "azure" }, "geometry": { "type": "Point", "coordinates": [ 70.05773, 22.470701 ] } },
{ "type": "Feature", "properties": { "region": "switzerlandnorth", "location_name": "Zurich, Switzerland North, Europe", "lat": 47.451542, "lon": 8.564572, "osm_id": null, "country_tld": "ch", "provider": "azure" }, "geometry": { "type": "Point", "coordinates": [ 8.564572, 47.451542 ] } },
{ "type": "Feature", "properties": { "region": "uaenorth", "location_name": "Dubai, UAE North, Middle East", "lat": 25.266666, "lon": 55.316666, "osm_id": null, "country_tld": "ae", "provider": "azure" }, "geometry": { "type": "Point", "coordinates": [ 55.316666, 25.266666 ] } },
{ "type": "Feature", "properties": { "region": "centraluseuap", "location_name": ", Central US EUAP, US", "lat": 41.5908, "lon": -93.6208, "osm_id": null, "country_tld": "us", "provider": "azure" }, "geometry": { "type": "Point", "coordinates": [ -93.6208, 41.5908 ] } },
{ "type": "Feature", "properties": { "region": "westcentralus", "location_name": "Wyoming, West Central US, US", "lat": 40.89, "lon": -110.234, "osm_id": null, "country_tld": "us", "provider": "azure" }, "geometry": { "type": "Point", "coordinates": [ -110.234, 40.89 ] } },
{ "type": "Feature", "properties": { "region": "southafricawest", "location_name": "Cape Town, South Africa West, Africa", "lat": -34.075691, "lon": 18.843266, "osm_id": null, "country_tld": "za", "provider": "azure" }, "geometry": { "type": "Point", "coordinates": [ 18.843266, -34.075691 ] } },
{ "type": "Feature", "properties": { "region": "australiacentral", "location_name": "Canberra, Australia Central, Asia Pacific", "lat": -35.3075, "lon": 149.1244, "osm_id": null, "country_tld": "au", "provider": "azure" }, "geometry": { "type": "Point", "coordinates": [ 149.1244, -35.3075 ] } },
{ "type": "Feature", "properties": { "region": "australiacentral2", "location_name": "Canberra, Australia Central 2, Asia Pacific", "lat": -35.3075, "lon": 149.1244, "osm_id": null, "country_tld": "au", "provider": "azure" }, "geometry": { "type": "Point", "coordinates": [ 149.1244, -35.3075 ] } },
{ "type": "Feature", "properties": { "region": "australiasoutheast", "location_name": "Victoria, Australia Southeast, Asia Pacific", "lat": -37.8136, "lon": 144.9631, "osm_id": null, "country_tld": "au", "provider": "azure" }, "geometry": { "type": "Point", "coordinates": [ 144.9631, -37.8136 ] } },
{ "type": "Feature", "properties": { "region": "japanwest", "location_name": "Osaka, Japan West, Asia Pacific", "lat": 34.6939, "lon": 135.5022, "osm_id": null, "country_tld": "jp", "provider": "azure" }, "geometry": { "type": "Point", "coordinates": [ 135.5022, 34.6939 ] } },
{ "type": "Feature", "properties": { "region": "jioindiacentral", "location_name": "Nagpur, Jio India Central, Asia Pacific", "lat": 21.146633, "lon": 79.08886, "osm_id": null, "country_tld": "in", "provider": "azure" }, "geometry": { "type": "Point", "coordinates": [ 79.08886, 21.146633 ] } },
{ "type": "Feature", "properties": { "region": "koreasouth", "location_name": "Busan, Korea South, Asia Pacific", "lat": 35.1796, "lon": 129.0756, "osm_id": null, "country_tld": "kr", "provider": "azure" }, "geometry": { "type": "Point", "coordinates": [ 129.0756, 35.1796 ] } },
{ "type": "Feature", "properties": { "region": "southindia", "location_name": "Chennai, South India, Asia Pacific", "lat": 12.9822, "lon": 80.1636, "osm_id": null, "country_tld": "in", "provider": "azure" }, "geometry": { "type": "Point", "coordinates": [ 80.1636, 12.9822 ] } },
{ "type": "Feature", "properties": { "region": "westindia", "location_name": "Mumbai, West India, Asia Pacific", "lat": 19.088, "lon": 72.868, "osm_id": null, "country_tld": "in", "provider": "azure" }, "geometry": { "type": "Point", "coordinates": [ 72.868, 19.088 ] } },
{ "type": "Feature", "properties": { "region": "canadaeast", "location_name": "Quebec, Canada East, Canada", "lat": 46.817, "lon": -71.217, "osm_id": null, "country_tld": "ca", "provider": "azure" }, "geometry": { "type": "Point", "coordinates": [ -71.217, 46.817 ] } },
{ "type": "Feature", "properties": { "region": "francesouth", "location_name": "Marseille, France South, Europe", "lat": 43.8345, "lon": 2.1972, "osm_id": null, "country_tld": "fr", "provider": "azure" }, "geometry": { "type": "Point", "coordinates": [ 2.1972, 43.8345 ] } },
{ "type": "Feature", "properties": { "region": "germanynorth", "location_name": "Berlin, Germany North, Europe", "lat": 53.073635, "lon": 8.806422, "osm_id": null, "country_tld": "de", "provider": "azure" }, "geometry": { "type": "Point", "coordinates": [ 8.806422, 53.073635 ] } },
{ "type": "Feature", "properties": { "region": "norwaywest", "location_name": "Norway, Norway West, Europe", "lat": 58.969975, "lon": 5.733107, "osm_id": null, "country_tld": "no", "provider": "azure" }, "geometry": { "type": "Point", "coordinates": [ 5.733107, 58.969975 ] } },
{ "type": "Feature", "properties": { "region": "switzerlandwest", "location_name": "Geneva, Switzerland West, Europe", "lat": 46.204391, "lon": 6.143158, "osm_id": null, "country_tld": "ch", "provider": "azure" }, "geometry": { "type": "Point", "coordinates": [ 6.143158, 46.204391 ] } },
{ "type": "Feature", "properties": { "region": "ukwest", "location_name": "Cardiff, UK West, Europe", "lat": 51.427, "lon": -3.084, "osm_id": null, "country_tld": "uk", "provider": "azure" }, "geometry": { "type": "Point", "coordinates": [ -3.084, 51.427 ] } },
{ "type": "Feature", "properties": { "region": "uaecentral", "location_name": "Abu Dhabi, UAE Central, Middle East", "lat": 24.466667, "lon": 54.366669, "osm_id": null, "country_tld": "ae", "provider": "azure" }, "geometry": { "type": "Point", "coordinates": [ 54.366669, 24.466667 ] } },
{ "type": "Feature", "properties": { "region": "brazilsoutheast", "location_name": "Rio, Brazil Southeast, South America", "lat": -22.90278, "lon": -43.2075, "osm_id": null, "country_tld": "br", "provider": "azure" }, "geometry": { "type": "Point", "coordinates": [ -43.2075, -22.90278 ] } },
{ "type": "Feature", "properties": { "region": "asia-east1", "location_name": "Changhua County, Taiwan, APAC", "lat": 24.0755667, "lon": 120.5444667, "osm_id": 2917549.0, "country_tld": "tw", "provider": "gcp" }, "geometry": { "type": "Point", "coordinates": [ 120.5444667, 24.0755667 ] } },
{ "type": "Feature", "properties": { "region": "asia-east2", "location_name": "Hong Kong, APAC", "lat": 22.2793278, "lon": 114.1628131, "osm_id": 10264792.0, "country_tld": "hk", "provider": "gcp" }, "geometry": { "type": "Point", "coordinates": [ 114.1628131, 22.2793278 ] } },
{ "type": "Feature", "properties": { "region": "asia-northeast1", "location_name": "Tokyo, Japan, APAC", "lat": 35.6828387, "lon": 139.7594549, "osm_id": 1543125.0, "country_tld": "jp", "provider": "gcp" }, "geometry": { "type": "Point", "coordinates": [ 139.7594549, 35.6828387 ] } },
{ "type": "Feature", "properties": { "region": "asia-northeast2", "location_name": "Osaka, Japan, APAC", "lat": 34.6198813, "lon": 135.490357, "osm_id": 341906.0, "country_tld": "jp", "provider": "gcp" }, "geometry": { "type": "Point", "coordinates": [ 135.490357, 34.6198813 ] } },
{ "type": "Feature", "properties": { "region": "asia-northeast3", "location_name": "Seoul, South Korea, APAC", "lat": 37.5666791, "lon": 126.9782914, "osm_id": 2297418.0, "country_tld": "kr", "provider": "gcp" }, "geometry": { "type": "Point", "coordinates": [ 126.9782914, 37.5666791 ] } },
{ "type": "Feature", "properties": { "region": "asia-south1", "location_name": "Mumbai, India APAC", "lat": 19.0759899, "lon": 72.8773928, "osm_id": 7888990.0, "country_tld": "in", "provider": "gcp" }, "geometry": { "type": "Point", "coordinates": [ 72.8773928, 19.0759899 ] } },
{ "type": "Feature", "properties": { "region": "asia-south2", "location_name": "Delhi, India APAC", "lat": 28.6517178, "lon": 77.2219388, "osm_id": 2702400314.0, "country_tld": "in", "provider": "gcp" }, "geometry": { "type": "Point", "coordinates": [ 77.2219388, 28.6517178 ] } },
{ "type": "Feature", "properties": { "region": "asia-southeast1", "location_name": "Jurong West, Singapore, APAC", "lat": 1.3434392, "lon": 103.7058663, "osm_id": 1830761573.0, "country_tld": "sg", "provider": "gcp" }, "geometry": { "type": "Point", "coordinates": [ 103.7058663, 1.3434392 ] } },
{ "type": "Feature", "properties": { "region": "asia-southeast2", "location_name": "Jakarta, Indonesia, APAC", "lat": -6.1753942, "lon": 106.827183, "osm_id": 6362934.0, "country_tld": "id", "provider": "gcp" }, "geometry": { "type": "Point", "coordinates": [ 106.827183, -6.1753942 ] } },
{ "type": "Feature", "properties": { "region": "australia-southeast1", "location_name": "Sydney, Australia, APAC", "lat": -33.8698439, "lon": 151.2082848, "osm_id": 13766899.0, "country_tld": "au", "provider": "gcp" }, "geometry": { "type": "Point", "coordinates": [ 151.2082848, -33.8698439 ] } },
{ "type": "Feature", "properties": { "region": "australia-southeast2", "location_name": "Melbourne, Australia, APAC", "lat": -37.8142176, "lon": 144.9631608, "osm_id": 4246124.0, "country_tld": "au", "provider": "gcp" }, "geometry": { "type": "Point", "coordinates": [ 144.9631608, -37.8142176 ] } },
{ "type": "Feature", "properties": { "region": "europe-central2", "location_name": "Warsaw, Poland, Europe", "lat": 52.2319581, "lon": 21.0067249, "osm_id": 336075.0, "country_tld": "pl", "provider": "gcp" }, "geometry": { "type": "Point", "coordinates": [ 21.0067249, 52.2319581 ] } },
{ "type": "Feature", "properties": { "region": "europe-north1", "location_name": "Hamina, Finland, Europe", "lat": 60.5688901, "lon": 27.1881877, "osm_id": 2502574.0, "country_tld": "fi", "provider": "gcp" }, "geometry": { "type": "Point", "coordinates": [ 27.1881877, 60.5688901 ] } },
{ "type": "Feature", "properties": { "region": "europe-southwest1", "location_name": "Madrid, Spain, Europe", "lat": 40.4167047, "lon": -3.7035825, "osm_id": 5326784.0, "country_tld": "es", "provider": "gcp" }, "geometry": { "type": "Point", "coordinates": [ -3.7035825, 40.4167047 ] } },
{ "type": "Feature", "properties": { "region": "europe-west1", "location_name": "St. Ghislain, Belgium, Europe", "lat": 50.4477484, "lon": 3.8195241, "osm_id": 2170568.0, "country_tld": "be", "provider": "gcp" }, "geometry": { "type": "Point", "coordinates": [ 3.8195241, 50.4477484 ] } },
{ "type": "Feature", "properties": { "region": "europe-west2", "location_name": "London, England, Europe", "lat": 51.5073219, "lon": -0.1276474, "osm_id": 65606.0, "country_tld": "uk", "provider": "gcp" }, "geometry": { "type": "Point", "coordinates": [ -0.1276474, 51.5073219 ] } },
{ "type": "Feature", "properties": { "region": "europe-west3", "location_name": "Frankfurt, Germany Europe", "lat": 50.1106444, "lon": 8.6820917, "osm_id": 62400.0, "country_tld": "de", "provider": "gcp" }, "geometry": { "type": "Point", "coordinates": [ 8.6820917, 50.1106444 ] } },
{ "type": "Feature", "properties": { "region": "europe-west4", "location_name": "Eemshaven, Netherlands, Europe", "lat": 53.44847365, "lon": 6.8499627202982314, "osm_id": 2518795.0, "country_tld": "nl", "provider": "gcp" }, "geometry": { "type": "Point", "coordinates": [ 6.849962720298231, 53.44847365 ] } },
{ "type": "Feature", "properties": { "region": "europe-west6", "location_name": "Zurich, Switzerland, Europe", "lat": 47.3744489, "lon": 8.5410422, "osm_id": 1682248.0, "country_tld": "ch", "provider": "gcp" }, "geometry": { "type": "Point", "coordinates": [ 8.5410422, 47.3744489 ] } },
{ "type": "Feature", "properties": { "region": "europe-west8", "location_name": "Milan, Italy, Europe", "lat": 45.4641943, "lon": 9.1896346, "osm_id": 44915.0, "country_tld": "it", "provider": "gcp" }, "geometry": { "type": "Point", "coordinates": [ 9.1896346, 45.4641943 ] } },
{ "type": "Feature", "properties": { "region": "europe-west9", "location_name": "Paris, France, Europe", "lat": 48.8588897, "lon": 2.3200410217200766, "osm_id": 7444.0, "country_tld": "fr", "provider": "gcp" }, "geometry": { "type": "Point", "coordinates": [ 2.320041021720077, 48.8588897 ] } },
{ "type": "Feature", "properties": { "region": "northamerica-northeast1", "location_name": "Montréal, Québec, North America", "lat": 45.5031824, "lon": -73.5698065, "osm_id": 1634158.0, "country_tld": "ca", "provider": "gcp" }, "geometry": { "type": "Point", "coordinates": [ -73.5698065, 45.5031824 ] } },
{ "type": "Feature", "properties": { "region": "northamerica-northeast2", "location_name": "Toronto, Ontario, North America", "lat": 43.6534817, "lon": -79.3839347, "osm_id": 2989349.0, "country_tld": "ca", "provider": "gcp" }, "geometry": { "type": "Point", "coordinates": [ -79.3839347, 43.6534817 ] } },
{ "type": "Feature", "properties": { "region": "southamerica-east1", "location_name": "Osasco, São Paulo, Brazil, South America", "lat": -23.5324859, "lon": -46.7916801, "osm_id": 298470.0, "country_tld": "br", "provider": "gcp" }, "geometry": { "type": "Point", "coordinates": [ -46.7916801, -23.5324859 ] } },
{ "type": "Feature", "properties": { "region": "southamerica-west1", "location_name": "Santiago, Chile, South America", "lat": -33.4377756, "lon": -70.6504502, "osm_id": 50016356.0, "country_tld": "cl", "provider": "gcp" }, "geometry": { "type": "Point", "coordinates": [ -70.6504502, -33.4377756 ] } },
{ "type": "Feature", "properties": { "region": "us-central1", "location_name": "Council Bluffs, Iowa, North America", "lat": 41.258841, "lon": -95.8519484, "osm_id": 151750637.0, "country_tld": "us", "provider": "gcp" }, "geometry": { "type": "Point", "coordinates": [ -95.8519484, 41.258841 ] } },
{ "type": "Feature", "properties": { "region": "us-central2", "location_name": "Mayes County, Oklahoma, North America", "lat": 36.3047676, "lon": -95.2355722, "osm_id": 1822225.0, "country_tld": "us", "provider": "gcp" }, "geometry": { "type": "Point", "coordinates": [ -95.2355722, 36.3047676 ] } },
{ "type": "Feature", "properties": { "region": "us-east1", "location_name": "Moncks Corner, South Carolina, North America", "lat": 33.1973235, "lon": -80.010947962754074, "osm_id": 194122.0, "country_tld": "us", "provider": "gcp" }, "geometry": { "type": "Point", "coordinates": [ -80.010947962754074, 33.1973235 ] } },
{ "type": "Feature", "properties": { "region": "us-east4", "location_name": "Ashburn, Virginia, North America", "lat": 39.0437192, "lon": -77.4874899, "osm_id": 158504587.0, "country_tld": "us", "provider": "gcp" }, "geometry": { "type": "Point", "coordinates": [ -77.4874899, 39.0437192 ] } },
{ "type": "Feature", "properties": { "region": "us-east5", "location_name": "Colombus, Ohio, North America", "lat": 39.9622601, "lon": -83.0007065, "osm_id": 153982815.0, "country_tld": "us", "provider": "gcp" }, "geometry": { "type": "Point", "coordinates": [ -83.0007065, 39.9622601 ] } },
{ "type": "Feature", "properties": { "region": "us-south1", "location_name": "Dallas, Texas, North America", "lat": 32.7762719, "lon": -96.7968559, "osm_id": 6571629.0, "country_tld": "us", "provider": "gcp" }, "geometry": { "type": "Point", "coordinates": [ -96.7968559, 32.7762719 ] } },
{ "type": "Feature", "properties": { "region": "us-west1", "location_name": "The Dalles, Oregon, North America", "lat": 45.6015056, "lon": -121.1841587, "osm_id": 186362.0, "country_tld": "us", "provider": "gcp" }, "geometry": { "type": "Point", "coordinates": [ -121.1841587, 45.6015056 ] } },
{ "type": "Feature", "properties": { "region": "us-west2", "location_name": "Los Angeles, California, North America", "lat": 34.0536909, "lon": -118.242766, "osm_id": 207359.0, "country_tld": "us", "provider": "gcp" }, "geometry": { "type": "Point", "coordinates": [ -118.242766, 34.0536909 ] } },
{ "type": "Feature", "properties": { "region": "us-west3", "location_name": "Salt Lake City, Utah, North America", "lat": 40.7596198, "lon": -111.8867975, "osm_id": 150935219.0, "country_tld": "us", "provider": "gcp" }, "geometry": { "type": "Point", "coordinates": [ -111.8867975, 40.7596198 ] } },
{ "type": "Feature", "properties": { "region": "us-west4", "location_name": "Las Vegas, Nevada, North America", "lat": 36.1672559, "lon": -115.148516, "osm_id": 170117.0, "country_tld": "us", "provider": "gcp" }, "geometry": { "type": "Point", "coordinates": [ -115.148516, 36.1672559 ] } }
]
}
